CCSDS_OEM_VERS = 2.0  
CREATION_DATE  = 2026-05-08T15:37:14
ORIGINATOR     = ESOC/OPS-GFA                            
 
 



META_START
OBJECT_NAME          = LISA                                    
OBJECT_ID            = -1000                                   
CENTER_NAME          = SUN                     
REF_FRAME            = EME2000 
TIME_SYSTEM          = TCB
START_TIME           = 2036-12-23T00:00:30.346418            
STOP_TIME            = 2047-09-08T09:09:42.632547            
INTERPOLATION        = HERMITE                                 
INTERPOLATION_DEGREE = 7                                       
META_STOP

2041-02-12T10:49:10.911330    -7.92892550190702528e+07    1.16635992913877815e+08    5.12649301036299244e+07   -2.51535744973253124e+01   -1.44053579417270132e+01   -6.47517931665932522e+00    3.11396201272686397e-06   -4.58092600522667432e-06   -2.01343505166643351e-06
2041-02-13T06:55:28.111797    -8.11015814345605671e+07    1.15581410272741377e+08    5.07910169912633300e+07   -2.49255954079347752e+01   -1.47354476755549690e+01   -6.62024746396349784e+00    3.18568373243240578e-06   -4.54028991915874152e-06   -1.99516550486742165e-06
2041-02-14T03:01:45.312265    -8.28972200684615225e+07    1.14503043937719643e+08    5.03066524745932296e+07   -2.46924478684367159e+01   -1.50625621615508258e+01   -6.76397831480116807e+00    3.25677939290611190e-06   -4.49871221816638848e-06   -1.97648209557541955e-06
2041-02-14T23:08:02.512732    -8.46757984506148696e+07    1.13401111676315606e+08    4.98119344103403315e+07   -2.44541777247542740e+01   -1.53866335265118863e+01   -6.90634204032274646e+00    3.32723426742042606e-06   -4.45620062133148150e-06   -1.95738830100118279e-06
2041-02-15T19:14:19.713199    -8.64369474671429992e+07    1.12275836146611571e+08    4.93069628043062463e+07   -2.42108318853344322e+01   -1.57075944623143258e+01   -7.04730906613435160e+00    3.39703372104289340e-06   -4.41276302191129557e-06   -1.93788767421677868e-06
2041-02-16T15:20:36.913666    -8.81803014746622741e+07    1.11127444882944301e+08    4.87918398045371473e+07   -2.39624583147274315e+01   -1.60253782379400747e+01   -7.18685007753415128e+00    3.46616320416245614e-06   -4.36840747079733643e-06   -1.91798383690009143e-06
2041-02-17T11:26:54.114133    -8.99054984364871830e+07    1.09956170297079623e+08    4.82666697012445852e+07   -2.37091060277034877e+01   -1.63399187101859482e+01   -7.32493602417142053e+00    3.53460824409168946e-06   -4.32314215659696615e-06   -1.89768047061786008e-06
2041-02-18T07:35:50.267782    -9.16159073835206926e+07    1.08759602735375091e+08    4.77303728083256036e+07   -2.34502524578163367e+01   -1.66518301782737694e+01   -7.46183647899549740e+00    3.60250270629907812e-06   -4.27687347192388307e-06   -1.87693561901182449e-06
2041-02-19T03:44:46.421431    -9.33073621116118431e+07    1.07540532834487841e+08    4.71842006076459140e+07   -2.31864999698729299e+01   -1.69603529288932648e+01   -7.59721788653997088e+00    3.66968109818582636e-06   -4.22970837276374739e-06   -1.85579727010299850e-06
2041-02-19T23:53:42.575079    -9.49795091976989955e+07    1.06299208758196950e+08    4.66282643205302060e+07   -2.29179010168705659e+01   -1.72654222645750650e+01   -7.73105184980685056e+00    3.73612931531690154e-06   -4.18165584479527292e-06   -1.83426945432475360e-06
2041-02-20T20:02:38.728728    -9.66319990050395876e+07    1.05035883316543132e+08    4.60626772075453848e+07   -2.26445090718243875e+01   -1.75669741452511374e+01   -7.86331026659587362e+00    3.80183334086018694e-06   -4.13272503086068521e-06   -1.81235627059472574e-06
2041-02-21T16:11:34.882377    -9.82644858045460433e+07    1.03750813938316807e+08    4.54875545558618978e+07   -2.23663786207753681e+01   -1.78649452001173970e+01   -7.99396533467962378e+00    3.86677926265008543e-06   -4.08292524317749882e-06   -1.79006189179647435e-06
2041-02-22T12:20:31.036026    -9.98766278729074299e+07    1.02444262632765591e+08    4.49030136619374156e+07   -2.20835651546626011e+01   -1.81592727402797820e+01   -8.12298955733085570e+00    3.93095328749746646e-06   -4.03226597281495087e-06   -1.76739056904710625e-06
2041-02-23T08:29:27.189674    -1.01468087572447985e+08    1.01116495942660689e+08    4.43091738104500920e+07   -2.17961251602571586e+01   -1.84498947719887276e+01   -8.25035574911544067e+00    3.99434175275351444e-06   -3.98075689644254633e-06   -1.74434663475402888e-06
2041-02-24T04:38:23.343324    -1.03038531417655542e+08    9.97677848908715099e+07    4.37061562504127696e+07   -2.15041161103571383e+01   -1.87367500102638047e+01   -8.37603704186295062e+00    4.05693113511945201e-06   -3.92840788033997885e-06   -1.72093450445625697e-06
2041-02-25T00:47:19.496973    -1.04587630133313566e+08    9.83984049225974083e+07    4.30940841693996117e+07   -2.12075964534432444e+01   -1.90197778927103052e+01   -8.50000689072689397e+00    4.11870805670860368e-06   -3.87522898167841470e-06   -1.69715867745457479e-06
2041-02-25T20:56:15.650621    -1.06115058709170043e+08    9.70086358454059511e+07    4.24730826668164581e+07   -2.09066256029944206e+01   -1.92989185933295566e+01   -8.62223908024661867e+00    4.17965928835543503e-06   -3.82123044706372309e-06   -1.67302373622643354e-06
2041-02-26T17:05:11.804270    -1.07620496456076741e+08    9.55987617692264616e+07    4.18432787271465063e+07   -2.06012639266630337e+01   -1.95741130361246753e+01   -8.74270773032289306e+00    4.23977175018023152e-06   -3.76642270835344763e-06   -1.64853434463073783e-06
2041-02-27T13:14:07.957919    -1.09103627068532124e+08    9.41690710484484136e+07    4.12048011941024810e+07   -2.02915727355090176e+01   -1.98453029083036228e+01   -8.86138730201919955e+00    4.29903250940971653e-06   -3.71081637574904215e-06   -1.62369524490332837e-06
2041-02-28T09:23:04.111567    -1.10564138698561475e+08    9.27198562282736450e+07    4.05577807466170117e+07   -1.99776142734924811e+01   -2.01124306728812101e+01   -8.97825260310071904e+00    4.35742877541066685e-06   -3.65442222811077609e-06   -1.59851125341985716e-06
2041-03-01T05:32:00.265216    -1.12001724045867503e+08    9.12514139974711090e+07    3.99023498776023760e+07   -1.96594517074242425e+01   -2.03754395804819666e+01   -9.09327879322305854e+00    4.41494789204473726e-06   -3.59725120062177074e-06   -1.57298725528159129e-06
2041-03-02T01:40:56.418865    -1.13416080469184905e+08    8.97640451496840715e+07    3.92386428764111176e+07   -1.93371491175737482e+01   -2.06342736801455047e+01   -9.20644138868272677e+00    4.47157732718965164e-06   -3.53931436962887841e-06   -1.54712819764892812e-06
2041-03-02T21:49:52.572514    -1.14806910123772249e+08    8.82580545554384738e+07    3.85667958159290776e+07   -1.90107714891338944e+01   -2.08888778289362094e+01   -9.31771626664133734e+00    4.52730465956301169e-06   -3.48062293479412150e-06   -1.52093908188059463e-06
2041-03-03T18:04:02.786805    -1.16179786396008343e+08    8.67271118852495551e+07    3.78839857523503453e+07   -1.86789455920708249e+01   -2.11402721328361771e+01   -9.42754899628231691e+00    4.58235328009430387e-06   -3.42092966715971471e-06   -1.49430963435318800e-06
2041-03-04T14:18:13.001096    -1.17528343843053460e+08    8.51780141493868828e+07    3.71932453037812486e+07   -1.83431433511268764e+01   -2.13872908251767413e+01   -9.53542998677439613e+00    4.63646758452094192e-06   -3.36049867025348763e-06   -1.46735771954493564e-06
2041-03-05T10:32:23.215385    -1.18852295309822589e+08    8.36110820616001636e+07    3.64947175067650229e+07   -1.80034332662759375e+01   -2.16298805983654283e+01   -9.64133594091186197e+00    4.68963565463410148e-06   -3.29934194043764413e-06   -1.44008869005037266e-06
2041-03-06T06:46:33.429676    -1.20151358600053012e+08    8.20266401761514843e+07    3.57885470761879757e+07   -1.76598847010927251e+01   -2.18679890238446006e+01   -9.74524395367259544e+00    4.74184570353117303e-06   -3.23747161572725865e-06   -1.41250796086186354e-06
2041-03-07T03:00:43.643966    -1.21425256593106017e+08    8.04250168338300735e+07    3.50748803809317127e+07   -1.73125678724064223e+01   -2.21015645627460451e+01   -9.84713151690801958e+00    4.79308609638276177e-06   -3.17489998455919022e-06   -1.38462101314176361e-06
2041-03-07T23:14:53.858257    -1.22673717334105268e+08    7.88065441021157801e+07    3.43538654170460775e+07   -1.69615538385726410e+01   -2.23305565771031276e+01   -9.94697652427250212e+00    4.84334536767577622e-06   -3.11163949240240258e-06   -1.35643339705572669e-06
2041-03-08T19:29:04.072547    -1.23896474103053331e+08    7.71715577105732411e+07    3.36256517788982242e+07   -1.66069144866173843e+01   -2.25549153414659536e+01   -1.00447572763250079e+01    4.89261223493958028e-06   -3.04770274621305427e-06   -1.32795073366850692e-06
2041-03-09T15:43:14.286838    -1.25093265468552962e+08    7.55203969825719744e+07    3.28903906287590042e+07   -1.62487225185094459e+01   -2.27745920547624046e+01   -1.01404524857346114e+01    4.94087560894489154e-06   -2.98310251672709233e-06   -1.29917871589916482e-06
2041-03-10T11:57:24.501128    -1.26263835331760108e+08    7.38534047644274235e+07    3.21482346652878821e+07   -1.58870514368177513e+01   -2.29895388522477617e+01   -1.02340412825215150e+01    4.98812460039363402e-06   -2.91785173860297787e-06   -1.27012310854110380e-06
2041-03-11T08:11:34.715419    -1.27407932966195241e+08    7.21709273530581892e+07    3.13993380913775116e+07   -1.55219755300100850e+01   -2.31997088173858295e+01   -1.03255032192651743e+01    5.03434852306997102e-06   -2.85196350839424020e-06   -1.24078974733814976e-06
2041-03-12T04:25:44.929710    -1.28525313059039637e+08    7.04733144232543558e+07    3.06438565818192810e+07   -1.51535698576496500e+01   -2.34050559935042770e+01   -1.04148182762111805e+01    5.07953689349463434e-06   -2.78545108037939267e-06   -1.21118453712869360e-06
